UNKNOWN                 
1 82829U          25176.43277674 -.00000061  00000+0 -54090-3 0  9999
2 82829  65.1012 331.8732 0166523  11.3866  19.0828 11.29093845466850
UNKNOWN                 
1 82854U          25176.34074947  .00000951  00000+0  74455-3 0  9998
2 82854  82.6899 198.1272 0132294  46.0045 315.1932 13.87152068 56535
UNKNOWN                 
1 82873U          25176.10689789  .00002099  00000+0  94637-3 0  9998
2 82873 100.0074  47.1334 0041899  38.3592 322.0549 14.23075059596950
UNKNOWN                 
1 82875U          25174.70872688  .00000779  00000+0  21321-3 0  9999
2 82875  98.6570 162.5112 0380519  56.6666 307.0335 14.14759480520142
UNKNOWN                 
1 82893U          25176.54348726  .00004279  00000+0  17231-2 0  9997
2 82893  98.9619 286.7410 0028750 173.5927 186.5626 14.28349736399651
UNKNOWN                 
1 82912U          25175.48616029  .00001343  00000+0  59337-3 0  9998
2 82912  65.8323 208.3930 0777716 346.5083  11.6166 13.26337392 13745
UNKNOWN                 
1 82961U          25174.91365931  .00005065  00000+0  82570-2 0  9991
2 82961  99.9120 338.3290 0411221  52.8262 310.9669 13.19316520533020
UNKNOWN                 
1 82965U 70025    25170.16648103  .00000923  00000+0  13103-2 0  9991
2 82965 100.1216 243.9745 0002621 148.6063 211.5232 13.59571180500456
UNKNOWN                 
1 83903U          25175.87596855 -.00000157  00000+0  00000+0 0  9998
2 83903   6.6030 292.1373 0124531 245.1959 146.2445  0.99111809 41973
UNKNOWN                 
1 83934U          25174.07413074  .00000032  00000+0  00000+0 0  9995
2 83934   6.1703 298.6970 0224830 265.4041  99.0834  1.02660619 43515
UNKNOWN                 
1 83970U          25176.28614200  .00003429  00000+0  36652-2 0  9992
2 83970  18.2851  52.2720 5080969 148.1947 256.2504  5.30548091187132
UNKNOWN                 
1 84006U          25172.31380289  .00000010  00000+0  00000+0 0  9998
2 84006  22.7931 211.7896 6089023   1.0120 359.9632  2.16230244 80458
UNKNOWN                 
1 84188U          25175.75475096  .00102988  00000+0  65401-1 0  9996
2 84188  65.1049  33.6115 4005693  36.4643 345.1700  7.13976226 28887
UNKNOWN                 
1 84232U 79104    25151.05028913  .00008977  00000+0  58503-2 0  9995
2 84232  20.5498  24.9933 6595876 223.8362  59.1755  3.13792513 98521
UNKNOWN                 
1 84236U          25174.41851122 -.00000201  00000+0 -12573-2 0  9990
2 84236   9.3114  52.3382 6883909 301.7416   9.0480  2.62456673198179
UNKNOWN                 
1 84292U          25176.25693938  .00003153  00000+0  14926-2 0  9996
2 84292  23.8572  36.1557 4586652 189.7641 156.8454  6.19870286217474
UNKNOWN                 
1 84406U          25172.65660326  .00000276  00000+0  16830-2 0  9997
2 84406 101.7162 314.6441 0042094  28.5065 350.9851 12.67095478 27267
UNKNOWN                 
1 84407U          25174.89734020  .00000167  00000+0 -10739-2 0  9991
2 84407  19.5975  12.8653 7200818 329.7549   3.4410  2.05748205 72331
UNKNOWN                 
1 84437U          25173.45172692 -.00000001  00000+0  00000+0 0  9990
2 84437  18.8270 300.0336 7021984 181.2145 175.3173  1.97308657  9521
UNKNOWN                 
1 84932U          25176.08469539  .00000357  00000+0  42491-2 0  9997
2 84932   2.3862 333.2300 6547659 235.6919 110.3384  2.99664360126666
UNKNOWN                 
1 85004U          25176.20062291  .00000652  00000+0  21571-3 0  9991
2 85004  98.3975 150.0800 0046623 316.4920  57.7359 14.40566481606344
UNKNOWN                 
1 85010U          25170.85772190  .00000826  00000+0  91341-3 0  9994
2 85010  99.2693  38.0886 0027214 359.4306  63.2008 13.74623879579755
UNKNOWN                 
1 85015U          25175.78823541  .00000312  00000+0  68082-4 0  9990
2 85015  74.0480   5.2722 0015444 312.2074  47.7781 14.62037820617628
UNKNOWN                 
1 85023U          25176.42138303  .00009430  00000+0  17902-2 0  9999
2 85023  99.8495 157.3702 0004414  83.8279  75.0261 14.64471998603833
UNKNOWN                 
1 85027U          25176.57071238  .00000061  00000+0  13201-3 0  9992
2 85027  66.0399 158.2108 0185493 278.0337  79.9717 13.74158622581230
UNKNOWN                 
1 85047U          25176.06253893  .00008452  00000+0  14331-1 0  9992
2 85047 102.3597 105.2088 0179973  34.3775 326.8837 13.39474573553772
UNKNOWN                 
1 85061U          25175.40152186  .00004256  00000+0  17486-1 0  9990
2 85061 102.4077 143.8641 0261357 158.6629 353.8714 12.75480214533928
UNKNOWN                 
1 85100U          25174.72244392  .00000220  00000+0  77212-4 0  9992
2 85100  74.0440 180.7503 0011107  91.7062  25.9224 14.40536452608578
UNKNOWN                 
1 85106U          25176.51063736  .00000331  00000+0  41346-3 0  9999
2 85106 100.0544 269.0637 0010750  89.9976 292.6236 13.72648443579711
UNKNOWN                 
1 85151U 86019    25176.06630326  .00008648  00000+0  14041-2 0  9998
2 85151  98.4160  33.7226 0009913 333.9063  26.1642 14.71367279454384
UNKNOWN                 
1 85210U 75052    25175.61856786  .00000574  00000+0  58754-3 0  9999
2 85210  99.8433 312.1368 0215818  33.2772 338.5529 13.71166888578708
UNKNOWN                 
1 85217U          25175.23084084  .00000959  00000+0  26995-3 0  9998
2 85217  98.0277 281.0475 0209926 286.1117  71.7052 14.35972083603237
UNKNOWN                 
1 85237U          25176.06351256  .00003653  00000+0  82331-3 0  9990
2 85237  65.5362 301.7801 0514541 106.6424 259.1775 13.98652489584465
UNKNOWN                 
1 85238U          25176.09288279  .00000009  00000+0  42837-4 0  9998
2 85238  99.0472 110.3346 0062538 302.9009  72.2154 13.88305588587161
UNKNOWN                 
1 85246U          25176.30880352  .00000994  00000+0  36859-3 0  9990
2 85246  97.9888 195.8382 0226548  86.4604 276.2455 14.20881860598862
UNKNOWN                 
1 85373U          25175.26064994  .00002501  00000+0  17488-2 0  9993
2 85373 100.4330 187.7058 0046160 332.1129  89.3332 13.99119309588142
UNKNOWN                 
1 85448U          25170.94813851 -.00000162  00000+0  00000+0 0  9991
2 85448   1.0774 281.6401 4011088 178.0910 243.7468  1.11243265    09
UNKNOWN                 
1 85449U          25171.82910985 -.00000296  00000+0  00000+0 0  9994
2 85449   1.1006 280.5353 3659924 173.8872 207.9840  1.00593983    19
UNKNOWN                 
1 85450U          25171.08391049 -.00000114  00000+0  00000+0 0  9997
2 85450   1.4725 290.0905 4667416 185.6371 285.1682  1.39151211    09
UNKNOWN                 
1 87014U          25176.36205228  .00001361  00000+0  21711-2 0  9993
2 87014 100.5097 131.2029 0047343 300.1478 214.5008 13.50900450567900
UNKNOWN                 
1 87029U 99025    25175.38105909  .00000616  00000+0  40358-3 0  9991
2 87029  98.7715 216.5832 0082514  11.8965 348.4127 14.04059242568955
UNKNOWN                 
1 87042U 00055    25175.07312564  .00000686  00000+0  43445-3 0  9991
2 87042  98.7321 224.3100 0042911 216.9622 142.8588 14.06769059529829
UNKNOWN                 
1 87051U 76126    25175.77308887  .00002025  00000+0  67793-3 0  9994
2 87051  65.7297 301.6360 0731509 218.7219 135.9182 13.44909729565589
UNKNOWN                 
1 87054U 75052    25176.35111889  .00001539  00000+0  89970-3 0  9993
2 87054 100.1046  34.9438 0015475  82.0918 278.2004 14.10144891592304
UNKNOWN                 
1 87071U 68097    25174.68397074  .00002763  00000+0  98058-3 0  9996
2 87071  61.2180  62.2362 0503083 152.7709 210.0683 13.83347361578665
UNKNOWN                 
1 87074U 77121    25171.71329483  .00000212  00000+0  29817-3 0  9991
2 87074  66.1431 323.1544 0146700   2.0244 358.1382 13.71420904579182
UNKNOWN                 
1 87113U 76126    25175.20455993  .00046584  00000+0  14368-2 0  9999
2 87113  65.6247 255.1707 0115648 287.7099  71.1441 15.26938466609559
UNKNOWN                 
1 87129U 76077    25176.19049451  .00000072  00000+0  85477-3 0  9990
2 87129 102.2641 265.1135 0030324  46.0006 314.3550 12.42736426525488
UNKNOWN                 
1 87159U          25165.66648624  .00001055  00000+0  12278-2 0  9993
2 87159  90.3455  62.9240 0111394  73.9385 287.4007 13.65552665531972
UNKNOWN                 
1 87163U 76126    25174.75352259  .00003254  00000+0  99141-3 0  9994
2 87163  65.5998 300.0299 0650820 141.6469 223.2776 13.62687456554072
UNKNOWN                 
1 87164U          25176.50507183  .00002508  00000+0  54952-3 0  9998
2 87164  65.2035 101.2449 0102885 136.1882 224.7438 14.56433305610969
UNKNOWN                 
1 87204U          25176.05133758  .00001446  00000+0  58810-3 0  9993
2 87204  98.5557  40.2893 0047711 104.2992 256.3494 14.28417131601063
UNKNOWN                 
1 87211U          25176.25008807  .00001951  00000+0  56482-3 0  9993
2 87211  99.0752 164.1715 0053488 307.0328  67.9016 14.44922842683140
UNKNOWN                 
1 87214U 70025    25176.39952864  .00001734  00000+0  15904-2 0  9998
2 87214 100.3197 158.5298 0074717 331.7225  27.9879 13.83363186576688
UNKNOWN                 
1 87237U 99025    25173.11760780  .00000170  00000+0  16245-3 0  9998
2 87237  99.2771 228.7725 0103898  34.2058 354.9201 13.91582905587612
UNKNOWN                 
1 87239U 81053    25176.40678296  .00003961  00000+0  10538-2 0  9996
2 87239  82.8757 226.9640 0020952 209.9852 150.0147 14.48250775603190
UNKNOWN                 
1 87245U 71015    25176.54526742  .00000954  00000+0  21310-3 0  9993
2 87245  65.6563 142.0158 0452044 205.4772 268.6990 14.13520021590133
UNKNOWN                 
1 87271U 71015    25174.84742977  .00008475  00000+0  15706-2 0  9990
2 87271  65.7542 337.1531 0438349 164.0708 197.4688 14.18551627587964
UNKNOWN                 
1 87280U          25176.62076320  .00000269  00000+0  53983-3 0  9999
2 87280  64.6162 296.0530 0128205 294.5576  64.2144 13.48374160510917
